ONEWEB-0395             
1 50475U 21132G   25153.20913359  .00000431  00000+0  11795-2 0  9990
2 50475  87.8834  96.8240 0002323  76.4898 283.6489 13.11417070167180
ONEWEB-0396             
1 50476U 21132H   25153.70905350 -.00000026  00000+0 -99782-4 0  9994
2 50476  87.9158  50.8661 0001865  73.9908 286.1429 13.18686578172896
ONEWEB-0397             
1 50477U 21132J   25153.72327729  .00000003  00000+0 -24238-4 0  9993
2 50477  87.9157  50.8643 0001726  75.2697 284.8626 13.18686792172872
ONEWEB-0398             
1 50478U 21132K   25153.10060270 -.00000709  00000+0 -20373-2 0  9999
2 50478  87.8829  96.8108 0002466  85.6156 274.5253 13.11417019167076
ONEWEB-0399             
1 50479U 21132L   25153.54483464 -.00000072  00000+0 -23864-3 0  9994
2 50479  87.8829  96.7453 0001866  71.1405 288.9925 13.11415297167126
ONEWEB-0400             
1 50480U 21132M   25153.77859758  .00000013  00000+0  13108-5 0  9999
2 50480  87.9155  50.8445 0002090  81.8854 278.2515 13.18685976172885
ONEWEB-0401             
1 50481U 21132N   25153.21427814  .00000131  00000+0  30000-3 0  9992
2 50481  87.9156  50.9503 0001680  78.3153 281.8167 13.18685866172814
ONEWEB-0402             
1 50482U 21132P   25154.16589319 -.00001012  00000+0 -26014-2 0  9997
2 50482  87.9150  50.7576 0001204  78.6668 281.4599 13.18678410172961
