<?xml version="1.0" encoding="UTF-8"?>
<ndm xmlns:xsi="http://www.w3.org/2001/XMLSchema-instance" xsi:noNamespaceSchemaLocation="https://sanaregistry.org/r/ndmxml_unqualified/ndmxml-2.0.0-master-2.0.xsd">
<omm id="CCSDS_OMM_VERS" version="2.0">
<header><CREATION_DATE/><ORIGINATOR/></header><body><segment><metadata><OBJECT_NAME>ONEWEB-0395</OBJECT_NAME><OBJECT_ID>2021-132G</OBJECT_ID><CENTER_NAME>EARTH</CENTER_NAME><REF_FRAME>TEME</REF_FRAME><TIME_SYSTEM>UTC</TIME_SYSTEM><MEAN_ELEMENT_THEORY>SGP4</MEAN_ELEMENT_THEORY></metadata><data><meanElements><EPOCH>2025-06-02T05:01:09.142176</EPOCH><MEAN_MOTION>13.11417070</MEAN_MOTION><ECCENTRICITY>.0002323</ECCENTRICITY><INCLINATION>87.8834</INCLINATION><RA_OF_ASC_NODE>96.8240</RA_OF_ASC_NODE><ARG_OF_PERICENTER>76.4898</ARG_OF_PERICENTER><MEAN_ANOMALY>283.6489</MEAN_ANOMALY></meanElements><tleParameters><EPHEMERIS_TYPE>0</EPHEMERIS_TYPE><CLASSIFICATION_TYPE>U</CLASSIFICATION_TYPE><NORAD_CAT_ID>50475</NORAD_CAT_ID><ELEMENT_SET_NO>999</ELEMENT_SET_NO><REV_AT_EPOCH>16718</REV_AT_EPOCH><BSTAR>.11795E-2</BSTAR><MEAN_MOTION_DOT>.431E-5</MEAN_MOTION_DOT><MEAN_MOTION_DDOT>0</MEAN_MOTION_DDOT></tleParameters></data></segment></body></omm>
<omm id="CCSDS_OMM_VERS" version="2.0">
<header><CREATION_DATE/><ORIGINATOR/></header><body><segment><metadata><OBJECT_NAME>ONEWEB-0396</OBJECT_NAME><OBJECT_ID>2021-132H</OBJECT_ID><CENTER_NAME>EARTH</CENTER_NAME><REF_FRAME>TEME</REF_FRAME><TIME_SYSTEM>UTC</TIME_SYSTEM><MEAN_ELEMENT_THEORY>SGP4</MEAN_ELEMENT_THEORY></metadata><data><meanElements><EPOCH>2025-06-02T17:01:02.222400</EPOCH><MEAN_MOTION>13.18686578</MEAN_MOTION><ECCENTRICITY>.0001865</ECCENTRICITY><INCLINATION>87.9158</INCLINATION><RA_OF_ASC_NODE>50.8661</RA_OF_ASC_NODE><ARG_OF_PERICENTER>73.9908</ARG_OF_PERICENTER><MEAN_ANOMALY>286.1429</MEAN_ANOMALY></meanElements><tleParameters><EPHEMERIS_TYPE>0</EPHEMERIS_TYPE><CLASSIFICATION_TYPE>U</CLASSIFICATION_TYPE><NORAD_CAT_ID>50476</NORAD_CAT_ID><ELEMENT_SET_NO>999</ELEMENT_SET_NO><REV_AT_EPOCH>17289</REV_AT_EPOCH><BSTAR>-.99782E-4</BSTAR><MEAN_MOTION_DOT>-.26E-6</MEAN_MOTION_DOT><MEAN_MOTION_DDOT>0</MEAN_MOTION_DDOT></tleParameters></data></segment></body></omm>
<omm id="CCSDS_OMM_VERS" version="2.0">
<header><CREATION_DATE/><ORIGINATOR/></header><body><segment><metadata><OBJECT_NAME>ONEWEB-0397</OBJECT_NAME><OBJECT_ID>2021-132J</OBJECT_ID><CENTER_NAME>EARTH</CENTER_NAME><REF_FRAME>TEME</REF_FRAME><TIME_SYSTEM>UTC</TIME_SYSTEM><MEAN_ELEMENT_THEORY>SGP4</MEAN_ELEMENT_THEORY></metadata><data><meanElements><EPOCH>2025-06-02T17:21:31.157856</EPOCH><MEAN_MOTION>13.18686792</MEAN_MOTION><ECCENTRICITY>.0001726</ECCENTRICITY><INCLINATION>87.9157</INCLINATION><RA_OF_ASC_NODE>50.8643</RA_OF_ASC_NODE><ARG_OF_PERICENTER>75.2697</ARG_OF_PERICENTER><MEAN_ANOMALY>284.8626</MEAN_ANOMALY></meanElements><tleParameters><EPHEMERIS_TYPE>0</EPHEMERIS_TYPE><CLASSIFICATION_TYPE>U</CLASSIFICATION_TYPE><NORAD_CAT_ID>50477</NORAD_CAT_ID><ELEMENT_SET_NO>999</ELEMENT_SET_NO><REV_AT_EPOCH>17287</REV_AT_EPOCH><BSTAR>-.24238E-4</BSTAR><MEAN_MOTION_DOT>.3E-7</MEAN_MOTION_DOT><MEAN_MOTION_DDOT>0</MEAN_MOTION_DDOT></tleParameters></data></segment></body></omm>
<omm id="CCSDS_OMM_VERS" version="2.0">
<header><CREATION_DATE/><ORIGINATOR/></header><body><segment><metadata><OBJECT_NAME>ONEWEB-0398</OBJECT_NAME><OBJECT_ID>2021-132K</OBJECT_ID><CENTER_NAME>EARTH</CENTER_NAME><REF_FRAME>TEME</REF_FRAME><TIME_SYSTEM>UTC</TIME_SYSTEM><MEAN_ELEMENT_THEORY>SGP4</MEAN_ELEMENT_THEORY></metadata><data><meanElements><EPOCH>2025-06-02T02:24:52.073280</EPOCH><MEAN_MOTION>13.11417019</MEAN_MOTION><ECCENTRICITY>.0002466</ECCENTRICITY><INCLINATION>87.8829</INCLINATION><RA_OF_ASC_NODE>96.8108</RA_OF_ASC_NODE><ARG_OF_PERICENTER>85.6156</ARG_OF_PERICENTER><MEAN_ANOMALY>274.5253</MEAN_ANOMALY></meanElements><tleParameters><EPHEMERIS_TYPE>0</EPHEMERIS_TYPE><CLASSIFICATION_TYPE>U</CLASSIFICATION_TYPE><NORAD_CAT_ID>50478</NORAD_CAT_ID><ELEMENT_SET_NO>999</ELEMENT_SET_NO><REV_AT_EPOCH>16707</REV_AT_EPOCH><BSTAR>-.20373E-2</BSTAR><MEAN_MOTION_DOT>-.709E-5</MEAN_MOTION_DOT><MEAN_MOTION_DDOT>0</MEAN_MOTION_DDOT></tleParameters></data></segment></body></omm>
<omm id="CCSDS_OMM_VERS" version="2.0">
<header><CREATION_DATE/><ORIGINATOR/></header><body><segment><metadata><OBJECT_NAME>ONEWEB-0399</OBJECT_NAME><OBJECT_ID>2021-132L</OBJECT_ID><CENTER_NAME>EARTH</CENTER_NAME><REF_FRAME>TEME</REF_FRAME><TIME_SYSTEM>UTC</TIME_SYSTEM><MEAN_ELEMENT_THEORY>SGP4</MEAN_ELEMENT_THEORY></metadata><data><meanElements><EPOCH>2025-06-02T13:04:33.712896</EPOCH><MEAN_MOTION>13.11415297</MEAN_MOTION><ECCENTRICITY>.0001866</ECCENTRICITY><INCLINATION>87.8829</INCLINATION><RA_OF_ASC_NODE>96.7453</RA_OF_ASC_NODE><ARG_OF_PERICENTER>71.1405</ARG_OF_PERICENTER><MEAN_ANOMALY>288.9925</MEAN_ANOMALY></meanElements><tleParameters><EPHEMERIS_TYPE>0</EPHEMERIS_TYPE><CLASSIFICATION_TYPE>U</CLASSIFICATION_TYPE><NORAD_CAT_ID>50479</NORAD_CAT_ID><ELEMENT_SET_NO>999</ELEMENT_SET_NO><REV_AT_EPOCH>16712</REV_AT_EPOCH><BSTAR>-.23864E-3</BSTAR><MEAN_MOTION_DOT>-.72E-6</MEAN_MOTION_DOT><MEAN_MOTION_DDOT>0</MEAN_MOTION_DDOT></tleParameters></data></segment></body></omm>
<omm id="CCSDS_OMM_VERS" version="2.0">
<header><CREATION_DATE/><ORIGINATOR/></header><body><segment><metadata><OBJECT_NAME>ONEWEB-0400</OBJECT_NAME><OBJECT_ID>2021-132M</OBJECT_ID><CENTER_NAME>EARTH</CENTER_NAME><REF_FRAME>TEME</REF_FRAME><TIME_SYSTEM>UTC</TIME_SYSTEM><MEAN_ELEMENT_THEORY>SGP4</MEAN_ELEMENT_THEORY></metadata><data><meanElements><EPOCH>2025-06-02T18:41:10.830912</EPOCH><MEAN_MOTION>13.18685976</MEAN_MOTION><ECCENTRICITY>.000209</ECCENTRICITY><INCLINATION>87.9155</INCLINATION><RA_OF_ASC_NODE>50.8445</RA_OF_ASC_NODE><ARG_OF_PERICENTER>81.8854</ARG_OF_PERICENTER><MEAN_ANOMALY>278.2515</MEAN_ANOMALY></meanElements><tleParameters><EPHEMERIS_TYPE>0</EPHEMERIS_TYPE><CLASSIFICATION_TYPE>U</CLASSIFICATION_TYPE><NORAD_CAT_ID>50480</NORAD_CAT_ID><ELEMENT_SET_NO>999</ELEMENT_SET_NO><REV_AT_EPOCH>17288</REV_AT_EPOCH><BSTAR>.13108E-5</BSTAR><MEAN_MOTION_DOT>.13E-6</MEAN_MOTION_DOT><MEAN_MOTION_DDOT>0</MEAN_MOTION_DDOT></tleParameters></data></segment></body></omm>
<omm id="CCSDS_OMM_VERS" version="2.0">
<header><CREATION_DATE/><ORIGINATOR/></header><body><segment><metadata><OBJECT_NAME>ONEWEB-0401</OBJECT_NAME><OBJECT_ID>2021-132N</OBJECT_ID><CENTER_NAME>EARTH</CENTER_NAME><REF_FRAME>TEME</REF_FRAME><TIME_SYSTEM>UTC</TIME_SYSTEM><MEAN_ELEMENT_THEORY>SGP4</MEAN_ELEMENT_THEORY></metadata><data><meanElements><EPOCH>2025-06-02T05:08:33.631296</EPOCH><MEAN_MOTION>13.18685866</MEAN_MOTION><ECCENTRICITY>.000168</ECCENTRICITY><INCLINATION>87.9156</INCLINATION><RA_OF_ASC_NODE>50.9503</RA_OF_ASC_NODE><ARG_OF_PERICENTER>78.3153</ARG_OF_PERICENTER><MEAN_ANOMALY>281.8167</MEAN_ANOMALY></meanElements><tleParameters><EPHEMERIS_TYPE>0</EPHEMERIS_TYPE><CLASSIFICATION_TYPE>U</CLASSIFICATION_TYPE><NORAD_CAT_ID>50481</NORAD_CAT_ID><ELEMENT_SET_NO>999</ELEMENT_SET_NO><REV_AT_EPOCH>17281</REV_AT_EPOCH><BSTAR>.3E-3</BSTAR><MEAN_MOTION_DOT>.131E-5</MEAN_MOTION_DOT><MEAN_MOTION_DDOT>0</MEAN_MOTION_DDOT></tleParameters></data></segment></body></omm>
<omm id="CCSDS_OMM_VERS" version="2.0">
<header><CREATION_DATE/><ORIGINATOR/></header><body><segment><metadata><OBJECT_NAME>ONEWEB-0402</OBJECT_NAME><OBJECT_ID>2021-132P</OBJECT_ID><CENTER_NAME>EARTH</CENTER_NAME><REF_FRAME>TEME</REF_FRAME><TIME_SYSTEM>UTC</TIME_SYSTEM><MEAN_ELEMENT_THEORY>SGP4</MEAN_ELEMENT_THEORY></metadata><data><meanElements><EPOCH>2025-06-03T03:58:53.171616</EPOCH><MEAN_MOTION>13.18678410</MEAN_MOTION><ECCENTRICITY>.0001204</ECCENTRICITY><INCLINATION>87.9150</INCLINATION><RA_OF_ASC_NODE>50.7576</RA_OF_ASC_NODE><ARG_OF_PERICENTER>78.6668</ARG_OF_PERICENTER><MEAN_ANOMALY>281.4599</MEAN_ANOMALY></meanElements><tleParameters><EPHEMERIS_TYPE>0</EPHEMERIS_TYPE><CLASSIFICATION_TYPE>U</CLASSIFICATION_TYPE><NORAD_CAT_ID>50482</NORAD_CAT_ID><ELEMENT_SET_NO>999</ELEMENT_SET_NO><REV_AT_EPOCH>17296</REV_AT_EPOCH><BSTAR>-.26014E-2</BSTAR><MEAN_MOTION_DOT>-.1012E-4</MEAN_MOTION_DOT><MEAN_MOTION_DDOT>0</MEAN_MOTION_DDOT></tleParameters></data></segment></body></omm>

</ndm>
